SPACEBEE-55             
1 47459U 21006AY  22091.43092959  .00012994  00000+0  69946-3 0  9994
2 47459  97.4451 151.8955 0012051 185.4221 174.6882 15.14902171 65612
SPACEBEE-54             
1 47460U 21006AZ  22091.41109338  .00029803  00000+0  14631-2 0  9991
2 47460  97.4497 152.6939 0010940 178.6806 181.4459 15.17977926 65656
SPACEBEE-58             
1 47464U 21006BD  22091.38540248  .00030672  00000+0  14498-2 0  9997
2 47464  97.4530 153.6973 0013756 177.4649 182.6657 15.19257461 65703
SPACEBEE-57             
1 47465U 21006BE  22091.73171303  .00012318  00000+0  69094-3 0  9999
2 47465  97.4467 151.4796 0005665 188.1678 171.9462 15.13494175 65606
SPACEBEE-44             
1 47466U 21006BF  22091.41265080  .00028492  00000+0  14599-2 0  9990
2 47466  97.4501 151.9522 0006961 181.6542 178.4669 15.16517547 65609
SPACEBEE-56             
1 47468U 21006BH  22091.43027743  .00027098  00000+0  13969-2 0  9997
2 47468  97.4505 151.9443 0006883 182.1473 177.9731 15.16315676 65602
SPACEBEE-45             
1 47470U 21006BK  22091.73625294  .00030551  00000+0  15651-2 0  9996
2 47470  97.4501 152.3134 0007201 181.2885 178.8331 15.16507508 65653
SPACEBEE-43             
1 47480U 21006BV  22091.74413529  .00031933  00000+0  16327-2 0  9990
2 47480  97.4497 152.2666 0006889 181.0922 179.0298 15.16568473 65651
SPACEBEE-87             
1 47703U 21015E   22091.77049289  .00053068  00000+0  18744-2 0  9997
2 47703  97.4215 169.0427 0007650 344.3333  15.7669 15.28999591 60526
SPACEBEE-86             
1 47704U 21015F   22091.74679125  .00054889  00000+0  19200-2 0  9993
2 47704  97.4211 169.0611 0007553 344.5843  15.5166 15.29307682 60501
SPACEBEE-85             
1 47705U 21015G   22091.74663054  .00053522  00000+0  18716-2 0  9992
2 47705  97.4210 169.0588 0007528 344.3171  15.7835 15.29325004 60523
SPACEBEE-84             
1 47706U 21015H   22091.48044737  .00055379  00000+0  19329-2 0  9998
2 47706  97.4212 168.8026 0007535 345.0172  15.0844 15.29377179 60485
SPACEBEE-83             
1 47707U 21015J   22091.75325994  .00057435  00000+0  20027-2 0  9998
2 47707  97.4202 169.0466 0007693 343.2889  16.8096 15.29397417 60526
SPACEBEE-82             
1 47708U 21015K   22091.71497906  .00054677  00000+0  18885-2 0  9992
2 47708  97.4201 169.0856 0007292 343.8474  16.2533 15.29724443 60523
SPACEBEE-81             
1 47709U 21015L   22091.18162918  .00056161  00000+0  19336-2 0  9998
2 47709  97.4206 168.5823 0007311 345.5719  14.5311 15.29820135 60362
SPACEBEE-78             
1 47710U 21015M   22091.48983040  .00063935  00000+0  21762-2 0  9993
2 47710  97.4202 168.9328 0007193 343.4306  16.6698 15.30154934 60495
SPACEBEE-76             
1 47711U 21015N   22091.38790559  .00056123  00000+0  18875-2 0  9996
2 47711  97.4204 168.9159 0007011 343.3920  16.7090 15.30584236 60488
SPACEBEE-80             
1 47712U 21015P   22091.43578613  .00055591  00000+0  19065-2 0  9998
2 47712  97.4208 168.8506 0007307 343.9567  16.1441 15.29950516 60489
SPACEBEE-77             
1 47714U 21015Q   22091.46573502  .00056009  00000+0  18920-2 0  9999
2 47714  97.4208 168.9689 0007040 343.6160  16.4852 15.30441789 60415
SPACEBEE-79             
1 47715U 21015R   22091.18202804  .00056910  00000+0  19548-2 0  9991
2 47715  97.4222 168.6137 0007282 345.2378  14.8649 15.29892899 60443
SPACEBEE-65             
1 48626U 21006ES  22091.70485731  .00034897  00000+0  16442-2 0  9993
2 48626  97.2178 143.3587 0015292 162.0123 198.1657 15.19318613 65733
SPACEBEE-64             
1 48627U 21006ET  22091.70052353  .00036229  00000+0  17031-2 0  9990
2 48627  97.2179 143.3633 0015282 161.9644 198.2136 15.19388943 65738
SPACEBEE-66             
1 48628U 21006EU  22091.58597260  .00033377  00000+0  15802-2 0  9993
2 48628  97.2179 143.2128 0015370 162.2869 197.8905 15.19160407 65718
SPACEBEE-67             
1 48629U 21006EV  22091.59015818  .00034706  00000+0  16449-2 0  9994
2 48629  97.2182 143.2077 0015353 162.4329 197.7440 15.19114088 65717
SPACEBEE-68             
1 48630U 21006EW  22091.40081803  .00030562  00000+0  14539-2 0  9997
2 48630  97.2184 143.0100 0015542 163.1115 197.0640 15.19010514 65687
SPACEBEE-69             
1 48631U 21006EX  22091.80273494  .00035806  00000+0  17036-2 0  9992
2 48631  97.2182 143.3810 0015621 161.7299 198.4500 15.18969758 65741
SPACEBEE-70             
1 48632U 21006EY  22091.41950522  .00029315  00000+0  14012-2 0  9993
2 48632  97.2180 142.9869 0015770 163.3027 196.8731 15.18852070 65680
SPACEBEE-71             
1 48633U 21006EZ  22091.36728775  .00029333  00000+0  14065-2 0  9999
2 48633  97.2179 142.9052 0015923 163.9112 196.2632 15.18739975 65675
SPACEBEE-72             
1 48634U 21006FA  22091.45088524  .00027115  00000+0  13061-2 0  9992
2 48634  97.2179 142.9489 0016101 163.3977 196.7788 15.18594957 65689
SPACEBEE-73             
1 48635U 21006FB  22091.59454813  .00029879  00000+0  14416-2 0  9990
2 48635  97.2184 143.0601 0016353 163.0094 197.1691 15.18513848 65701
SPACEBEE-74             
1 48636U 21006FC  22091.41958295  .00027796  00000+0  13502-2 0  9996
2 48636  97.2178 142.8424 0016555 164.1563 196.0193 15.18290393 65670
SPACEBEE-75             
1 48637U 21006FD  22091.70261792  .00032020  00000+0  15592-2 0  9995
2 48637  97.2175 143.0686 0016806 163.5870 196.5912 15.18171070 65713
SPACEBEENZ-10           
1 48882U 21059D   22091.58899052  .00024213  00000+0  12932-2 0  9997
2 48882  97.5402 221.8357 0008004  19.1075 341.0456 15.15079725 42306
SPACEBEE-100            
1 48883U 21059E   22091.58715817  .00016578  00000+0  91293-3 0  9997
2 48883  97.5424 221.7069 0008797  15.5296 344.6204 15.14066119 42294
SPACEBEE-101            
1 48884U 21059F   22090.59625658  .00015008  00000+0  82922-3 0  9997
2 48884  97.5419 220.7292 0008610  23.3829 336.7793 15.13971143 42149
SPACEBEE-102            
1 48886U 21059H   22091.58228723  .00016228  00000+0  89496-3 0  9999
2 48886  97.5425 221.7168 0008578  19.3232 340.8323 15.14021093 42299
SPACEBEENZ-9            
1 48887U 21059J   22091.32519615  .00021460  00000+0  11477-2 0  9992
2 48887  97.5408 221.5729 0008032  20.4495 339.7057 15.15058604 42268
SPACEBEE-103            
1 48888U 21059K   22091.30283217  .00015625  00000+0  85857-3 0  9997
2 48888  97.5429 221.4767 0008716  17.9447 342.2090 15.14159548 42253
SPACEBEENZ-7            
1 48889U 21059L   22091.30165006  .00022064  00000+0  11752-2 0  9990
2 48889  97.5430 221.6768 0008683  19.9817 340.1753 15.15193121 42265
SPACEBEE-104            
1 48890U 21059M   22091.59797050  .00016678  00000+0  91617-3 0  9996
2 48890  97.5425 221.6780 0008719  20.5759 339.5822 15.14153926 42298
SPACEBEENZ-8            
1 48891U 21059N   22091.82970704  .00025307  00000+0  13463-2 0  9993
2 48891  97.5437 222.1992 0008666  18.5145 341.6401 15.15205764 42342
SPACEBEE-106            
1 48893U 21059Q   22091.82219693  .00016367  00000+0  89851-3 0  9999
2 48893  97.5449 222.0825 0009243  19.0504 341.1071 15.14177631 42335
SPACEBEE-107            
1 48894U 21059R   22091.35071904  .00015170  00000+0  83017-3 0  9998
2 48894  97.5451 221.6357 0009073  19.8695 340.2888 15.14309435 42261
SPACEBEE-108            
1 48895U 21059S   22091.35721933  .00014239  00000+0  78217-3 0  9994
2 48895  97.5443 221.6149 0009388  19.6792 340.4800 15.14186775 42263
SPACEBEE-105            
1 48896U 21059T   22091.86448999  .00016377  00000+0  90503-3 0  9996
2 48896  97.5422 221.9360 0008651   8.5550 351.5827 15.13946281 42335
SPACEBEE-109            
1 48897U 21059U   22091.35338374  .00014984  00000+0  82120-3 0  9994
2 48897  97.5447 221.6117 0009393  18.0781 342.0783 15.14256449 42265
SPACEBEE-110            
1 48899U 21059W   22091.31835264  .00015557  00000+0  84611-3 0  9996
2 48899  97.5444 221.6783 0009467  15.4970 344.6549 15.14519839 42269
SPACEBEE-111            
1 48904U 21059AB  22091.34583735  .00015546  00000+0  83856-3 0  9997
2 48904  97.5459 221.8166 0010587  15.9527 344.2037 15.14804094 42276
SPACEBEE-92             
1 48932U 21059BF  22091.59859084  .00041628  00000+0  19503-2 0  9995
2 48932  97.5342 222.8464 0015121   9.0394 351.1110 15.19476594 42381
SPACEBEE-89             
1 48933U 21059BG  22091.57951090  .00045848  00000+0  21254-2 0  9998
2 48933  97.5338 222.8588 0015186   8.0293 352.1181 15.19816130 42385
SPACEBEE-96             
1 48934U 21059BH  22091.35267380  .00036647  00000+0  17329-2 0  9992
2 48934  97.5344 222.5634 0015347  10.5288 349.6265 15.19183918 42344
SPACEBEE-88             
1 48935U 21059BJ  22091.57793221  .00046906  00000+0  21707-2 0  9999
2 48935  97.5336 222.8546 0015050   8.1299 352.0177 15.19871846 42385
SPACEBEE-99             
1 48936U 21059BK  22091.62764060  .00038786  00000+0  18435-2 0  9996
2 48936  97.5351 222.8209 0015333  10.0868 350.0671 15.18991713 42389
SPACEBEE-94             
1 48937U 21059BL  22091.60406631  .00041867  00000+0  19672-2 0  9990
2 48937  97.5341 222.8330 0015189   9.4747 350.6771 15.19373426 42384
SPACEBEE-93             
1 48939U 21059BN  22091.32698204  .00039649  00000+0  18499-2 0  9991
2 48939  97.5333 222.5857 0015206   9.1682 350.9828 15.19630791 42346
SPACEBEE-91             
1 48940U 21059BP  22091.58449344  .00045033  00000+0  20930-2 0  9997
2 48940  97.5337 222.8557 0015081   8.1194 352.0282 15.19733785 42388
SPACEBEE-95             
1 48945U 21059BU  22091.60084717  .00042201  00000+0  19772-2 0  9990
2 48945  97.5345 222.8480 0015133   8.8107 351.3390 15.19471546 42382
SPACEBEE-97             
1 48946U 21059BV  22091.28961139  .00034983  00000+0  16590-2 0  9990
2 48946  97.5346 222.4964 0015331  11.1284 349.0287 15.19095209 42332
SPACEBEE-90             
1 48947U 21059BW  22091.58181122  .00046227  00000+0  21458-2 0  9993
2 48947  97.5337 222.8571 0015066   8.4710 351.6776 15.19770004 42389
